OBJECT_NAME,OBJECT_ID,EPOCH,MEAN_MOTION,ECCENTRICITY,INCLINATION,RA_OF_ASC_NODE,ARG_OF_PERICENTER,MEAN_ANOMALY,EPHEMERIS_TYPE,CLASSIFICATION_TYPE,NORAD_CAT_ID,ELEMENT_SET_NO,REV_AT_EPOCH,BSTAR,MEAN_MOTION_DOT,MEAN_MOTION_DDOT
CUBEBUG-2 (LO-74),2013-066AA,2026-07-20T06:50:59.517312,14.93988121,.00555286,97.8921,150.4123,278.1054,81.3869,0,U,39440,999,68193,.18271022E-3,.1943E-4,0
FUNCUBE-1 (AO-73),2013-066AE,2026-07-20T04:43:33.688416,15.09859978,.00380511,97.8301,173.3445,91.4197,269.1391,0,U,39444,999,68464,.27557525E-3,.4467E-4,0
UWE-3,2013-066AG,2026-07-19T19:57:16.505856,14.97218739,.00476702,97.8723,157.1335,208.5998,151.2608,0,U,39446,999,68246,.18817093E-3,.2164E-4,0
UNISAT-6,2014-033C,2026-07-20T05:03:41.209632,14.88378362,.00437988,97.7916,353.3514,320.9353,38.8703,0,U,40012,999,65107,.12655801E-3,.1135E-4,0
DUCHIFAT-1,2014-033M,2026-07-20T03:17:07.107648,15.71988484,.00034299,98.0410,265.1222,227.9853,132.1117,0,U,40021,999,66091,.75274714E-3,.99013E-3,0
QB50P1,2014-033R,2026-07-20T00:46:07.385952,15.18708867,.00105133,98.0972,214.4928,110.5893,249.6468,0,U,40025,999,65801,.21291718E-3,.4346E-4,0
LILACSAT-2,2015-049K,2026-07-20T08:21:32.118624,15.52474213,.00086038,97.4626,239.4686,126.4633,233.7414,0,U,40908,999,60089,.19044673E-3,.1157E-3,0
FOX-1A (AO-85),2015-058D,2026-07-20T03:36:45.428256,14.91107360,.0132767,64.7727,176.5310,43.9361,317.2215,0,U,40967,999,11848,.17611163E-3,.1891E-4,0
CAS-2T & KS-1Q,2016-066G,2026-07-20T03:17:52.616256,14.44775384,.03419785,98.3810,276.4966,29.7840,332.2343,0,U,41847,999,50955,.64498983E-4,.398E-5,0
RADFXSAT (FOX-1B),2017-073E,2026-07-20T03:29:03.135552,15.13099239,.01484485,97.4661,67.6884,214.2207,144.9390,0,U,43017,999,47037,.14349287E-3,.3253E-4,0
DIWATA-2B,2018-084H,2026-07-20T05:53:30.271200,15.00573393,.00125672,98.1218,38.9021,68.7995,291.4568,0,U,43678,999,42117,.72937122E-4,.856E-5,0
ES'HAIL 2,2018-090A,2026-07-20T06:24:25.561728,1.00274029,.00024498,0.0206,79.9144,78.0088,262.0181,0,U,43700,999,2800,0,.142E-5,0
FOX-1CLIFF (AO-95),2018-099N,2026-07-20T02:29:24.152928,15.27333167,.00076585,97.4362,261.2401,220.0884,139.9791,0,U,43770,999,41824,.23587359E-3,.6244E-4,0
ITASAT,2018-099AE,2026-07-20T02:02:54.259008,15.19415168,.00111665,97.4008,251.9452,231.2773,128.7464,0,U,43786,999,41790,.17224113E-3,.3585E-4,0
JY1SAT (JO-97),2018-099AX,2026-07-20T02:22:46.052832,15.34614501,.00071935,97.4105,264.0674,143.5903,216.5831,0,U,43803,999,41867,.2904759E-3,.9671E-4,0
UWE-4,2018-111E,2026-07-20T06:22:06.006720,15.48018071,.00069255,97.5826,131.2291,175.7426,184.3884,0,U,43880,999,41589,.37307802E-3,.19451E-3,0
TIANYAN 01,2019-093C,2026-07-20T07:07:05.139264,14.86566358,.00131087,97.7512,272.7194,344.6221,15.4595,0,U,44881,999,35633,.99569927E-4,.83E-5,0
RS-44 & BREEZE-KM R/B,2019-096E,2026-07-20T07:26:28.771872,12.79748858,.02184223,82.5239,317.6966,67.0893,295.3101,0,U,44909,999,30658,-.35039137E-4,.4E-7,0
SALSAT,2020-068K,2026-07-19T23:26:01.225248,15.30211220,.00097251,97.8865,206.0496,176.0322,184.0997,0,U,46495,999,32037,.14328943E-3,.4107E-4,0
XW-3 (CAS-9),2021-131B,2026-07-20T07:20:43.018944,14.41384073,.00042432,98.4985,293.5172,17.1605,342.9726,0,U,50466,999,23988,.7004805E-4,.183E-5,0
GREENCUBE (IO-117),2022-080E,2026-07-20T04:18:04.419648,6.42583323,.00090888,70.1400,286.7734,282.4177,77.5466,0,U,53109,999,9418,0,-.3E-7,0
UMKA 1 (RS40S),2023-091G,2026-07-20T06:01:36.122592,15.21152777,.00125266,97.5029,259.8253,12.5529,347.6016,0,U,57172,999,16903,.147055E-3,.321E-4,0
CUBESX-HSE 3 (RS42S),2023-091N,2026-07-20T04:00:04.044672,15.31954844,.00091748,97.5068,267.1857,343.2006,16.8930,0,U,57178,999,16947,.2256472E-3,.689E-4,0
MONITOR-3 (RS58S),2023-091Q,2026-07-20T03:14:03.277824,15.28426399,.00104621,97.5061,264.8335,351.9326,8.1744,0,U,57180,999,16932,.20349267E-3,.5562E-4,0
MONITOR-4 (RS57S),2023-091S,2026-07-20T04:15:30.904128,15.28514554,.00104548,97.5054,264.8495,351.9756,8.1315,0,U,57182,999,16933,.20599019E-3,.5647E-4,0
MONITOR-2 (RS39S),2023-091U,2026-07-20T05:58:12.889920,15.19179650,.00108825,97.5051,259.3205,7.0005,353.1379,0,U,57184,999,16897,.12767012E-3,.2619E-4,0
SVYATOBOR 1 (RS60S),2023-091X,2026-07-20T06:51:05.008896,15.27110336,.00082177,97.5068,265.2942,345.7991,14.3016,0,U,57187,999,16936,.17624655E-3,.4614E-4,0
VIZARD-METEO (RS38S),2023-091Z,2026-07-20T07:05:27.482208,15.36968617,.00052832,97.5069,271.4652,317.5678,42.5157,0,U,57189,999,16977,.25777887E-3,.9241E-4,0
POLYTECH-UNIVERSE 3 (RS46S),2023-091AB,2026-07-20T06:30:51.829344,15.19392928,.00155843,97.5026,258.8472,20.7119,339.4744,0,U,57191,999,16897,.12186983E-3,.2517E-4,0
UTMN 2 (RS27S),2023-091AP,2026-07-20T07:07:52.240224,15.32771785,.00062859,97.5065,268.9918,329.8109,30.2769,0,U,57203,999,16961,.21878767E-3,.6847E-4,0
